{
  "type": "Feature",
  "properties": {
    "pcode": "TH500106",
    "name": "Wat Ket",
    "name_th": "วัดเกต",
    "adm2": "Mueang Chiang Mai",
    "adm1": "Chiang Mai",
    "area_km2": 6.8474,
    "area_km2_source": 6.8112238,
    "valid_on": "2022-01-22",
    "version": "v01",
    "source": "HDX cod-ab-tha — Thailand Subnational Administrative Boundaries, OCHA FISS",
    "license": "CC BY-IGO",
    "license_url": "https://creativecommons.org/licenses/by/3.0/igo/"
  },
  "geometry": {
    "type": "Polygon",
    "coordinates": [
      [
        [
          99.0195308,
          18.8045981
        ],
        [
          99.0189035,
          18.8031485
        ],
        [
          99.0189007,
          18.8025139
        ],
        [
          99.018895,
          18.8012073
        ],
        [
          99.0187546,
          18.7996826
        ],
        [
          99.0187118,
          18.7983377
        ],
        [
          99.0186966,
          18.7978042
        ],
        [
          99.0186826,
          18.7977071
        ],
        [
          99.0184158,
          18.7959416
        ],
        [
          99.0182082,
          18.794968
        ],
        [
          99.0181929,
          18.7948963
        ],
        [
          99.0182731,
          18.7945907
        ],
        [
          99.0183166,
          18.7944248
        ],
        [
          99.018319,
          18.7943241
        ],
        [
          99.0183577,
          18.7926486
        ],
        [
          99.0183244,
          18.79
        ],
        [
          99.0184231,
          18.7865962
        ],
        [
          99.0195286,
          18.7856637
        ],
        [
          99.0199455,
          18.7848683
        ],
        [
          99.0199492,
          18.78471
        ],
        [
          99.0199557,
          18.7846402
        ],
        [
          99.0199662,
          18.7845766
        ],
        [
          99.0200289,
          18.7843771
        ],
        [
          99.0200356,
          18.7843558
        ],
        [
          99.020046,
          18.784266
        ],
        [
          99.0200452,
          18.7842319
        ],
        [
          99.0200434,
          18.78416
        ],
        [
          99.0200381,
          18.7840515
        ],
        [
          99.0200303,
          18.7839866
        ],
        [
          99.0199393,
          18.7837627
        ],
        [
          99.0199045,
          18.7836548
        ],
        [
          99.019877,
          18.7835326
        ],
        [
          99.0198739,
          18.7835082
        ],
        [
          99.0198784,
          18.7834445
        ],
        [
          99.0199464,
          18.783247
        ],
        [
          99.0199813,
          18.7831611
        ],
        [
          99.0200577,
          18.7829738
        ],
        [
          99.0200611,
          18.7829509
        ],
        [
          99.0200738,
          18.7828662
        ],
        [
          99.0201888,
          18.7814126
        ],
        [
          99.0201888,
          18.7812598
        ],
        [
          99.0202081,
          18.7811791
        ],
        [
          99.0202992,
          18.7810692
        ],
        [
          99.0202992,
          18.7809501
        ],
        [
          99.0202476,
          18.7806838
        ],
        [
          99.0202402,
          18.7803263
        ],
        [
          99.0203138,
          18.780067
        ],
        [
          99.0203259,
          18.7799311
        ],
        [
          99.0203021,
          18.7798614
        ],
        [
          99.0202148,
          18.7797411
        ],
        [
          99.019602,
          18.778429
        ],
        [
          99.0190223,
          18.7773521
        ],
        [
          99.0188925,
          18.7769098
        ],
        [
          99.0188799,
          18.7768672
        ],
        [
          99.0186628,
          18.7765391
        ],
        [
          99.0187082,
          18.7765153
        ],
        [
          99.0195762,
          18.7760612
        ],
        [
          99.0200845,
          18.7757609
        ],
        [
          99.0205004,
          18.7754343
        ],
        [
          99.020526,
          18.7753997
        ],
        [
          99.020526,
          18.7753683
        ],
        [
          99.0205175,
          18.7753278
        ],
        [
          99.020503,
          18.7752589
        ],
        [
          99.020381,
          18.7750835
        ],
        [
          99.020278,
          18.7749354
        ],
        [
          99.0200117,
          18.7744369
        ],
        [
          99.019851,
          18.7741068
        ],
        [
          99.0197339,
          18.7740041
        ],
        [
          99.0195272,
          18.7739144
        ],
        [
          99.0191574,
          18.773656
        ],
        [
          99.0190497,
          18.7735797
        ],
        [
          99.018953,
          18.7734464
        ],
        [
          99.0189158,
          18.7733435
        ],
        [
          99.0189158,
          18.7733383
        ],
        [
          99.0189166,
          18.7731585
        ],
        [
          99.0188924,
          18.7730936
        ],
        [
          99.0187496,
          18.7728334
        ],
        [
          99.0187135,
          18.7727572
        ],
        [
          99.0186672,
          18.7726248
        ],
        [
          99.0186605,
          18.7724212
        ],
        [
          99.0186996,
          18.7721974
        ],
        [
          99.0187402,
          18.7719489
        ],
        [
          99.0187374,
          18.7719186
        ],
        [
          99.0186718,
          18.7716904
        ],
        [
          99.0186012,
          18.7715593
        ],
        [
          99.0184311,
          18.7713896
        ],
        [
          99.0179788,
          18.771146
        ],
        [
          99.0176841,
          18.7708854
        ],
        [
          99.0172476,
          18.7704915
        ],
        [
          99.0100383,
          18.7648773
        ],
        [
          99.009767,
          18.7644976
        ],
        [
          99.0097014,
          18.7644186
        ],
        [
          99.009387,
          18.7643205
        ],
        [
          99.0093034,
          18.7642945
        ],
        [
          99.0092119,
          18.7642675
        ],
        [
          99.0088407,
          18.7641581
        ],
        [
          99.0087188,
          18.7641334
        ],
        [
          99.0085553,
          18.7641415
        ],
        [
          99.0084388,
          18.7641725
        ],
        [
          99.0083643,
          18.7642036
        ],
        [
          99.0082991,
          18.7642658
        ],
        [
          99.0082618,
          18.7643457
        ],
        [
          99.0081686,
          18.764501
        ],
        [
          99.0080661,
          18.7646031
        ],
        [
          99.0079775,
          18.7646697
        ],
        [
          99.0078377,
          18.7647452
        ],
        [
          99.0072599,
          18.7649272
        ],
        [
          99.0070129,
          18.7650559
        ],
        [
          99.0068312,
          18.7651536
        ],
        [
          99.0066914,
          18.7652646
        ],
        [
          99.0065749,
          18.7654244
        ],
        [
          99.0064864,
          18.7656108
        ],
        [
          99.0064584,
          18.7657174
        ],
        [
          99.0063606,
          18.7658683
        ],
        [
          99.0061322,
          18.7660636
        ],
        [
          99.0055497,
          18.7664587
        ],
        [
          99.0055264,
          18.7665386
        ],
        [
          99.0055358,
          18.7669292
        ],
        [
          99.0034559,
          18.7662422
        ],
        [
          99.0029482,
          18.76608
        ],
        [
          99.0023273,
          18.7673393
        ],
        [
          99.002028,
          18.7682304
        ],
        [
          99.002003,
          18.7691097
        ],
        [
          99.0020904,
          18.7704999
        ],
        [
          99.0025894,
          18.7717712
        ],
        [
          99.0033752,
          18.7730188
        ],
        [
          99.0040208,
          18.7736269
        ],
        [
          99.0045104,
          18.7740881
        ],
        [
          99.0055208,
          18.7748604
        ],
        [
          99.0065937,
          18.7758703
        ],
        [
          99.0070178,
          18.7765951
        ],
        [
          99.0070677,
          18.7774862
        ],
        [
          99.0068682,
          18.778318
        ],
        [
          99.0056582,
          18.7805874
        ],
        [
          99.0046978,
          18.7824766
        ],
        [
          99.0045544,
          18.7829022
        ],
        [
          99.0045231,
          18.7833915
        ],
        [
          99.0047353,
          18.7860174
        ],
        [
          99.0047275,
          18.786389
        ],
        [
          99.0045575,
          18.7868733
        ],
        [
          99.0041334,
          18.7874174
        ],
        [
          99.0039011,
          18.7876136
        ],
        [
          99.0038335,
          18.7878728
        ],
        [
          99.0037806,
          18.7880759
        ],
        [
          99.0033756,
          18.7896295
        ],
        [
          99.0023526,
          18.7907464
        ],
        [
          99.0011176,
          18.7919108
        ],
        [
          99.0004189,
          18.7929208
        ],
        [
          98.9999449,
          18.793503
        ],
        [
          98.9996704,
          18.7942753
        ],
        [
          98.9996829,
          18.7956298
        ],
        [
          98.9998076,
          18.7963665
        ],
        [
          99.0002568,
          18.7971626
        ],
        [
          99.0011925,
          18.7977923
        ],
        [
          99.0021656,
          18.7984814
        ],
        [
          99.0029266,
          18.7993844
        ],
        [
          99.0033259,
          18.8002043
        ],
        [
          99.0038375,
          18.803139
        ],
        [
          99.0039503,
          18.8037129
        ],
        [
          99.0040739,
          18.8040646
        ],
        [
          99.0042835,
          18.8044695
        ],
        [
          99.0049034,
          18.8044487
        ],
        [
          99.0056155,
          18.8044159
        ],
        [
          99.0062676,
          18.8044068
        ],
        [
          99.0071374,
          18.8044057
        ],
        [
          99.0078622,
          18.8044192
        ],
        [
          99.0084901,
          18.8044101
        ],
        [
          99.0091906,
          18.8044124
        ],
        [
          99.0098187,
          18.8044033
        ],
        [
          99.0105432,
          18.8043931
        ],
        [
          99.0115815,
          18.8043783
        ],
        [
          99.0122942,
          18.8043806
        ],
        [
          99.0183916,
          18.8043559
        ],
        [
          99.0195308,
          18.8045981
        ]
      ]
    ]
  }
}
